{"fetched_at":"2026-07-14T06:34:49.463Z","source":"https://celestrak.org/NORAD/elements/gp.php?NAME=ICEYE&FORMAT=JSON","constellation":"iceye","records":[{"OBJECT_NAME":"ICEYE-X2","OBJECT_ID":"2018-099AU","EPOCH":"2026-07-13T20:10:26.332320","CLASSIFICATION_TYPE":"U","MEAN_MOTION":15.18026859,"ECCENTRICITY":0.0009599,"INCLINATION":97.4346,"RA_OF_ASC_NODE":248.2148,"ARG_OF_PERICENTER":200.0378,"MEAN_ANOMALY":160.048,"EPHEMERIS_TYPE":0,"NORAD_CAT_ID":43800,"ELEMENT_SET_NO":999,"REV_AT_EPOCH":41686,"BSTAR":0.000094204,"MEAN_MOTION_DOT":0.00001851,"MEAN_MOTION_DDOT":0},{"OBJECT_NAME":"ICEYE-X4","OBJECT_ID":"2019-038D","EPOCH":"2026-07-13T21:19:50.611008","CLASSIFICATION_TYPE":"U","MEAN_MOTION":15.29863777,"ECCENTRICITY":0.0012749,"INCLINATION":97.8747,"RA_OF_ASC_NODE":229.3805,"ARG_OF_PERICENTER":202.7739,"MEAN_ANOMALY":157.2936,"EPHEMERIS_TYPE":0,"NORAD_CAT_ID":44390,"ELEMENT_SET_NO":999,"REV_AT_EPOCH":38588,"BSTAR":0.00024093,"MEAN_MOTION_DOT":0.00006899,"MEAN_MOTION_DDOT":0},{"OBJECT_NAME":"ICEYE-X7","OBJECT_ID":"2020-068L","EPOCH":"2026-07-13T20:37:14.628576","CLASSIFICATION_TYPE":"U","MEAN_MOTION":15.32079527,"ECCENTRICITY":0.0005884,"INCLINATION":97.7503,"RA_OF_ASC_NODE":162.6105,"ARG_OF_PERICENTER":218.6682,"MEAN_ANOMALY":141.4138,"EPHEMERIS_TYPE":0,"NORAD_CAT_ID":46496,"ELEMENT_SET_NO":999,"REV_AT_EPOCH":31887,"BSTAR":0.00022629,"MEAN_MOTION_DOT":0.00006928,"MEAN_MOTION_DDOT":0},{"OBJECT_NAME":"ICEYE-X6","OBJECT_ID":"2020-068M","EPOCH":"2026-07-13T20:37:45.162336","CLASSIFICATION_TYPE":"U","MEAN_MOTION":15.04662722,"ECCENTRICITY":0.0007359,"INCLINATION":98.0987,"RA_OF_ASC_NODE":189.8093,"ARG_OF_PERICENTER":14.1122,"MEAN_ANOMALY":346.0306,"EPHEMERIS_TYPE":0,"NORAD_CAT_ID":46497,"ELEMENT_SET_NO":999,"REV_AT_EPOCH":31724,"BSTAR":0.00013669,"MEAN_MOTION_DOT":0.00001855,"MEAN_MOTION_DDOT":0},{"OBJECT_NAME":"ICEYE-X21","OBJECT_ID":"2023-001AS","EPOCH":"2026-06-24T05:11:18.420288","CLASSIFICATION_TYPE":"U","MEAN_MOTION":16.24069885,"ECCENTRICITY":0.00123774,"INCLINATION":97.3001,"RA_OF_ASC_NODE":262.6152,"ARG_OF_PERICENTER":285.9702,"MEAN_ANOMALY":74.0225,"EPHEMERIS_TYPE":0,"NORAD_CAT_ID":55049,"ELEMENT_SET_NO":999,"REV_AT_EPOCH":19475,"BSTAR":0.000602142,"MEAN_MOTION_DOT":0.01585954,"MEAN_MOTION_DDOT":0.000002396838},{"OBJECT_NAME":"ICEYE-X25","OBJECT_ID":"2023-084AH","EPOCH":"2026-07-13T20:15:09.872064","CLASSIFICATION_TYPE":"U","MEAN_MOTION":15.62739982,"ECCENTRICITY":0.000424,"INCLINATION":97.5906,"RA_OF_ASC_NODE":342.9813,"ARG_OF_PERICENTER":189.7343,"MEAN_ANOMALY":170.3834,"EPHEMERIS_TYPE":0,"NORAD_CAT_ID":56963,"ELEMENT_SET_NO":999,"REV_AT_EPOCH":17213,"BSTAR":0.00035152,"MEAN_MOTION_DOT":0.00031506,"MEAN_MOTION_DDOT":0},{"OBJECT_NAME":"ICEYE-X31","OBJECT_ID":"2023-174AJ","EPOCH":"2026-07-13T20:50:52.740672","CLASSIFICATION_TYPE":"U","MEAN_MOTION":15.35150844,"ECCENTRICITY":0.0002569,"INCLINATION":97.3779,"RA_OF_ASC_NODE":270.6152,"ARG_OF_PERICENTER":189.91,"MEAN_ANOMALY":170.2093,"EPHEMERIS_TYPE":0,"NORAD_CAT_ID":58288,"ELEMENT_SET_NO":999,"REV_AT_EPOCH":14884,"BSTAR":0.00032429,"MEAN_MOTION_DOT":0.00010988,"MEAN_MOTION_DDOT":0},{"OBJECT_NAME":"ICEYE-X34","OBJECT_ID":"2023-174AQ","EPOCH":"2026-07-12T18:33:35.220384","CLASSIFICATION_TYPE":"U","MEAN_MOTION":15.70741927,"ECCENTRICITY":0.00015402,"INCLINATION":97.3863,"RA_OF_ASC_NODE":286.2997,"ARG_OF_PERICENTER":210.0049,"MEAN_ANOMALY":150.1125,"EPHEMERIS_TYPE":0,"NORAD_CAT_ID":58294,"ELEMENT_SET_NO":999,"REV_AT_EPOCH":14975,"BSTAR":0.0011404209,"MEAN_MOTION_DOT":0.00143164,"MEAN_MOTION_DDOT":0},{"OBJECT_NAME":"ICEYE-X35","OBJECT_ID":"2023-174AY","EPOCH":"2026-07-13T20:08:40.208928","CLASSIFICATION_TYPE":"U","MEAN_MOTION":15.55056561,"ECCENTRICITY":0.000792,"INCLINATION":97.3793,"RA_OF_ASC_NODE":280.1948,"ARG_OF_PERICENTER":112.0821,"MEAN_ANOMALY":248.1275,"EPHEMERIS_TYPE":0,"NORAD_CAT_ID":58302,"ELEMENT_SET_NO":999,"REV_AT_EPOCH":14948,"BSTAR":0.0005302,"MEAN_MOTION_DOT":0.00035668,"MEAN_MOTION_DDOT":0},{"OBJECT_NAME":"ICEYE-X38","OBJECT_ID":"2024-043C","EPOCH":"2026-07-13T20:04:47.775648","CLASSIFICATION_TYPE":"U","MEAN_MOTION":15.1308381,"ECCENTRICITY":0.0002477,"INCLINATION":97.8431,"RA_OF_ASC_NODE":339.3247,"ARG_OF_PERICENTER":25.2557,"MEAN_ANOMALY":334.8794,"EPHEMERIS_TYPE":0,"NORAD_CAT_ID":59100,"ELEMENT_SET_NO":999,"REV_AT_EPOCH":11570,"BSTAR":0.00014066,"MEAN_MOTION_DOT":0.00002419,"MEAN_MOTION_DDOT":0},{"OBJECT_NAME":"ICEYE-X37","OBJECT_ID":"2024-043E","EPOCH":"2026-07-13T19:41:26.859264","CLASSIFICATION_TYPE":"U","MEAN_MOTION":15.06286076,"ECCENTRICITY":0.0013744,"INCLINATION":97.8336,"RA_OF_ASC_NODE":332.2467,"ARG_OF_PERICENTER":279.2423,"MEAN_ANOMALY":80.7248,"EPHEMERIS_TYPE":0,"NORAD_CAT_ID":59102,"ELEMENT_SET_NO":999,"REV_AT_EPOCH":12909,"BSTAR":0.00010448,"MEAN_MOTION_DOT":0.00001471,"MEAN_MOTION_DDOT":0},{"OBJECT_NAME":"ICEYE-X36","OBJECT_ID":"2024-043F","EPOCH":"2026-07-13T17:48:57.216096","CLASSIFICATION_TYPE":"U","MEAN_MOTION":15.07225532,"ECCENTRICITY":0.0005244,"INCLINATION":97.8393,"RA_OF_ASC_NODE":333.2938,"ARG_OF_PERICENTER":220.1515,"MEAN_ANOMALY":139.9325,"EPHEMERIS_TYPE":0,"NORAD_CAT_ID":59103,"ELEMENT_SET_NO":999,"REV_AT_EPOCH":12914,"BSTAR":0.00017955,"MEAN_MOTION_DOT":0.00002639,"MEAN_MOTION_DDOT":0},{"OBJECT_NAME":"ICEYE-X43","OBJECT_ID":"2024-149BZ","EPOCH":"2026-07-13T18:48:42.371136","CLASSIFICATION_TYPE":"U","MEAN_MOTION":14.99784648,"ECCENTRICITY":0.0006651,"INCLINATION":97.6807,"RA_OF_ASC_NODE":271.3924,"ARG_OF_PERICENTER":354.1673,"MEAN_ANOMALY":5.9472,"EPHEMERIS_TYPE":0,"NORAD_CAT_ID":60539,"ELEMENT_SET_NO":999,"REV_AT_EPOCH":10410,"BSTAR":0.00007409,"MEAN_MOTION_DOT":0.00000857,"MEAN_MOTION_DDOT":0},{"OBJECT_NAME":"ICEYE-X39","OBJECT_ID":"2024-149CG","EPOCH":"2026-07-13T18:15:19.434240","CLASSIFICATION_TYPE":"U","MEAN_MOTION":15.00066506,"ECCENTRICITY":0.0006973,"INCLINATION":97.6787,"RA_OF_ASC_NODE":271.4254,"ARG_OF_PERICENTER":50.8202,"MEAN_ANOMALY":309.364,"EPHEMERIS_TYPE":0,"NORAD_CAT_ID":60546,"ELEMENT_SET_NO":999,"REV_AT_EPOCH":10410,"BSTAR":0.00019211,"MEAN_MOTION_DOT":0.00002335,"MEAN_MOTION_DDOT":0},{"OBJECT_NAME":"ICEYE-X33","OBJECT_ID":"2024-149CJ","EPOCH":"2026-07-13T04:04:27.452352","CLASSIFICATION_TYPE":"U","MEAN_MOTION":15.00875982,"ECCENTRICITY":0.00020198,"INCLINATION":97.7342,"RA_OF_ASC_NODE":273.1806,"ARG_OF_PERICENTER":79.759,"MEAN_ANOMALY":280.3862,"EPHEMERIS_TYPE":0,"NORAD_CAT_ID":60548,"ELEMENT_SET_NO":999,"REV_AT_EPOCH":10410,"BSTAR":0.00022290095,"MEAN_MOTION_DOT":0.00002776,"MEAN_MOTION_DDOT":0}]}
