ICEYE-X2                
1 43800U 18099AU  26194.84058255  .00001851  00000+0  94204-4 0  9998
2 43800  97.4346 248.2148 0009599 200.0378 160.0480 15.18026859416860
ICEYE-X4                
1 44390U 19038D   26194.88878022  .00006899  00000+0  24093-3 0  9998
2 44390  97.8747 229.3805 0012749 202.7739 157.2936 15.29863777385886
ICEYE-X7                
1 46496U 20068L   26194.85919709  .00006928  00000+0  22629-3 0  9993
2 46496  97.7503 162.6105 0005884 218.6682 141.4138 15.32079527318871
ICEYE-X6                
1 46497U 20068M   26194.85955049  .00001855  00000+0  13669-3 0  9999
2 46497  98.0987 189.8093 0007359  14.1122 346.0306 15.04662722317240
ICEYE-X21               
1 55049U 23001AS  26175.21618542  .01585954  23968-5  60214-3 0  9995
2 55049  97.3001 262.6152 0012377 285.9702  74.0225 16.24069885194757
ICEYE-X25               
1 56963U 23084AH  26194.84386426  .00031506  00000+0  35152-3 0  9992
2 56963  97.5906 342.9813 0004240 189.7343 170.3834 15.62739982172134
ICEYE-X31               
1 58288U 23174AJ  26194.86866598  .00010988  00000+0  32429-3 0  9994
2 58288  97.3779 270.6152 0002569 189.9100 170.2093 15.35150844148841
ICEYE-X34               
1 58294U 23174AQ  26193.77332431  .00143164  00000+0  11404-2 0  9996
2 58294  97.3863 286.2997 0001540 210.0049 150.1125 15.70741927149759
ICEYE-X35               
1 58302U 23174AY  26194.83935427  .00035668  00000+0  53020-3 0  9998
2 58302  97.3793 280.1948 0007920 112.0821 248.1275 15.55056561149487
ICEYE-X38               
1 59100U 24043C   26194.83666407  .00002419  00000+0  14066-3 0  9995
2 59100  97.8431 339.3247 0002477  25.2557 334.8794 15.13083810115708
ICEYE-X37               
1 59102U 24043E   26194.82044976  .00001471  00000+0  10448-3 0  9994
2 59102  97.8336 332.2467 0013744 279.2423  80.7248 15.06286076129091
ICEYE-X36               
1 59103U 24043F   26194.74232889  .00002639  00000+0  17955-3 0  9995
2 59103  97.8393 333.2938 0005244 220.1515 139.9325 15.07225532129142
ICEYE-X43               
1 60539U 24149BZ  26194.78382374  .00000857  00000+0  74090-4 0  9990
2 60539  97.6807 271.3924 0006651 354.1673   5.9472 14.99784648104100
ICEYE-X39               
1 60546U 24149CG  26194.76064160  .00002335  00000+0  19211-3 0  9992
2 60546  97.6787 271.4254 0006973  50.8202 309.3640 15.00066506104104
ICEYE-X33               
1 60548U 24149CJ  26194.16976218  .00002776  00000+0  22290-3 0  9994
2 60548  97.7342 273.1806 0002019  79.7590 280.3862 15.00875982104103
